OBJECT_NAME,OBJECT_ID,EPOCH,MEAN_MOTION,ECCENTRICITY,INCLINATION,RA_OF_ASC_NODE,ARG_OF_PERICENTER,MEAN_ANOMALY,EPHEMERIS_TYPE,CLASSIFICATION_TYPE,NORAD_CAT_ID,ELEMENT_SET_NO,REV_AT_EPOCH,BSTAR,MEAN_MOTION_DOT,MEAN_MOTION_DDOT
SWARM A,2013-067B,2026-06-30T18:26:17.486016,15.51206561,.0003196,87.3309,51.1945,97.2900,262.8725,0,U,39452,999,70835,.17193E-3,.10091E-3,0
SWARM C,2013-067C,2026-06-30T18:26:08.759616,15.51205314,.0003191,87.3308,49.7754,97.0001,263.1623,0,U,39453,999,70831,.17168E-3,.10077E-3,0
BRITE-CA1 (TORONTO),2014-033L,2026-06-30T08:31:01.000416,14.72697519,.00774864,97.9755,310.0412,234.1487,125.2508,0,U,40020,999,64415,.1483446E-3,.937E-5,0
OCO 2,2014-035A,2026-06-30T19:41:46.630176,14.57122057,.0001493,98.2019,122.9062,82.7041,277.4327,0,U,40059,999,63803,.9687E-4,.391E-5,0
BRITE-PL2 (HEWELIUSZ),2014-049B,2026-06-30T07:03:37.013760,14.94640537,.00151828,97.9110,293.3961,68.3877,291.8959,0,U,40119,999,64340,.14407238E-3,.1504E-4,0
MMS 1,2015-011A,2026-06-30T20:00:01.999008,0.28340106,.8314663,72.2422,348.6491,167.5985,251.0132,0,U,40482,999,139,0,-.984E-5,0
MMS 2,2015-011B,2026-06-30T20:00:01.999008,0.28340076,.8317472,72.2458,348.6482,167.6017,251.0032,0,U,40483,999,139,0,-.984E-5,0
MMS 3,2015-011C,2026-06-30T20:00:01.999008,0.28343397,.8315842,72.2466,348.6602,167.6124,250.9621,0,U,40484,999,139,0,-.983E-5,0
MMS 4,2015-011D,2026-06-30T20:00:01.999008,0.28340124,.8315747,72.2420,348.6433,167.6190,250.9706,0,U,40485,999,139,0,-.984E-5,0
ASTROSAT,2015-052A,2026-06-30T01:48:13.761792,14.82528855,.00083771,5.9975,62.5732,222.4622,137.4857,0,U,40930,999,58174,.11767867E-3,.164E-4,0
DAMPE,2015-078A,2026-06-30T19:55:26.808096,15.30818295,.0013109,97.4553,187.3641,34.5467,325.6623,0,U,41173,999,58663,.27418E-4,.74E-5,0
PISAT,2016-059B,2026-06-30T20:02:38.272416,14.69007089,.0029544,97.8181,181.7016,159.1187,201.1233,0,U,41784,999,52174,.17941E-3,.1011E-4,0
HXMT (HUIYAN),2017-034A,2026-06-30T19:34:53.493888,15.18574060,.0032598,43.0144,107.1468,233.1747,126.6110,0,U,42758,999,49973,.21464E-3,.4337E-4,0
FLYING LAPTOP,2017-042G,2026-06-30T20:23:57.062400,15.01231687,.0019957,97.4744,336.8616,77.9403,282.4057,0,U,42831,999,48850,.23574E-3,.2982E-4,0
ZHANGHENG 1-01 (CSES-1),2018-015C,2026-06-30T21:21:07.387776,15.20986438,.0017626,97.6877,347.8209,215.7705,144.2350,0,U,43194,999,46672,.34204E-3,.7541E-4,0
SALSAT,2020-068K,2026-06-30T11:43:12.412704,15.29983096,.0007929,97.8843,185.3641,251.0233,109.0147,0,U,46495,999,31739,.26165469E-3,.7517E-4,0
IXPE,2021-121A,2026-06-30T20:00:01.999008,15.10372475,.0007465,0.2293,214.5621,284.5931,271.5403,0,U,49954,999,567,.66892E-3,.12257E-3,0
SMILE,2026-109A,2026-06-07T09:11:54.544416,7.54049028,.3310191,69.9787,209.3069,288.5544,45.7342,0,U,69123,999,248,-.36778157E-3,-.41E-6,0
