SWARM A                 
1 39452U 13067B   26181.76825794  .00010091  00000+0  17193-3 0  9990
2 39452  87.3309  51.1945 0003196  97.2900 262.8725 15.51206561708353
SWARM C                 
1 39453U 13067C   26181.76815694  .00010077  00000+0  17168-3 0  9995
2 39453  87.3308  49.7754 0003191  97.0001 263.1623 15.51205314708311
BRITE-CA1 (TORONTO)     
1 40020U 14033L   26181.35487269  .00000937  00000+0  14834-3 0  9990
2 40020  97.9755 310.0412 0077486 234.1487 125.2508 14.72697519644156
OCO 2                   
1 40059U 14035A   26181.82067859  .00000391  00000+0  96870-4 0  9990
2 40059  98.2019 122.9062 0001493  82.7041 277.4327 14.57122057638036
BRITE-PL2 (HEWELIUSZ)   
1 40119U 14049B   26181.29417840  .00001504  00000+0  14407-3 0  9994
2 40119  97.9110 293.3961 0015182  68.3877 291.8959 14.94640537643406
MMS 1                   
1 40482U 15011A   26181.83335647 -.00000984  00000+0  00000+0 0  9993
2 40482  72.2422 348.6491 8314663 167.5985 251.0132  0.28340106  1397
MMS 2                   
1 40483U 15011B   26181.83335647 -.00000984  00000+0  00000+0 0  9994
2 40483  72.2458 348.6482 8317472 167.6017 251.0032  0.28340076  1390
MMS 3                   
1 40484U 15011C   26181.83335647 -.00000983  00000+0  00000+0 0  9994
2 40484  72.2466 348.6602 8315842 167.6124 250.9621  0.28343397  1393
MMS 4                   
1 40485U 15011D   26181.83335647 -.00000984  00000+0  00000+0 0  9996
2 40485  72.2420 348.6433 8315747 167.6190 250.9706  0.28340124  1392
ASTROSAT                
1 40930U 15052A   26181.07515928  .00001640  00000+0  11768-3 0  9990
2 40930   5.9975  62.5732 0008377 222.4622 137.4857 14.82528855581741
DAMPE                   
1 41173U 15078A   26181.83017139  .00000740  00000+0  27418-4 0  9993
2 41173  97.4553 187.3641 0013109  34.5467 325.6623 15.30818295586631
PISAT                   
1 41784U 16059B   26181.83516519  .00001011  00000+0  17941-3 0  9998
2 41784  97.8181 181.7016 0029544 159.1187 201.1233 14.69007089521745
HXMT (HUIYAN)           
1 42758U 17034A   26181.81589692  .00004337  00000+0  21464-3 0  9993
2 42758  43.0144 107.1468 0032598 233.1747 126.6110 15.18574060499731
FLYING LAPTOP           
1 42831U 17042G   26181.84996600  .00002982  00000+0  23574-3 0  9996
2 42831  97.4744 336.8616 0019957  77.9403 282.4057 15.01231687488506
ZHANGHENG 1-01 (CSES-1) 
1 43194U 18015C   26181.88966884  .00007541  00000+0  34204-3 0  9993
2 43194  97.6877 347.8209 0017626 215.7705 144.2350 15.20986438466729
SALSAT                  
1 46495U 20068K   26181.48833811  .00007517  00000+0  26165-3 0  9990
2 46495  97.8843 185.3641 0007929 251.0233 109.0147 15.29983096317397
IXPE                    
1 49954U 21121A   26181.83335647  .00012257  00000+0  66892-3 0  9995
2 49954   0.2293 214.5621 0007465 284.5931 271.5403 15.10372475  5679
SMILE                   
1 69123U 26109A   26158.38327019 -.00000041  00000+0 -36778-3 0  9994
2 69123  69.9787 209.3069 3310191 288.5544  45.7342  7.54049028  2480
